[
    {
        "Altitude(m)": 573904.9762699822,
        "Argument of Periapsis(deg)": 0.0,
        "Eccentricity": 0.0,
        "Inclination(deg)": 97.0,
        "Latitude(deg)": 61.371053541043395,
        "Longitude(deg)": 122.9574344500576,
        "Mean Anomaly(deg)": 117.93100000000001,
        "RAAN(deg)": 30.0,
        "Satellite Name": "Starlink Shell 3 1661",
        "Satellite Number": 1661,
        "Semi-Major Axis(m)": 6938478.169268562,
        "Time(s)": 0
    },
    {
        "Altitude(m)": 573780.2589534069,
        "Argument of Periapsis(deg)": -0.0003965466804030246,
        "Eccentricity": 0.0,
        "Inclination(deg)": 97.0,
        "Latitude(deg)": 60.766883905242345,
        "Longitude(deg)": 122.59247187190113,
        "Mean Anomaly(deg)": 118.55647619770505,
        "RAAN(deg)": 30.00010433427401,
        "Satellite Name": "Starlink Shell 3 1661",
        "Satellite Number": 1661,
        "Semi-Major Axis(m)": 6938478.169268562,
        "Time(s)": 10
    },
    {
        "Altitude(m)": 573653.9902855238,
        "Argument of Periapsis(deg)": -0.0007930933608060492,
        "Eccentricity": 0.0,
        "Inclination(deg)": 97.0,
        "Latitude(deg)": 60.16190271894732,
        "Longitude(deg)": 122.2394425992261,
        "Mean Anomaly(deg)": 119.1819523954101,
        "RAAN(deg)": 30.000208668548012,
        "Satellite Name": "Starlink Shell 3 1661",
        "Satellite Number": 1661,
        "Semi-Major Axis(m)": 6938478.169268562,
        "Time(s)": 20
    },
    {
        "Altitude(m)": 573526.2440580844,
        "Argument of Periapsis(deg)": -0.001189640041209074,
        "Eccentricity": 0.0,
        "Inclination(deg)": 97.0,
        "Latitude(deg)": 59.55615385510066,
        "Longitude(deg)": 121.89764477886932,
        "Mean Anomaly(deg)": 119.80742859311515,
        "RAAN(deg)": 30.000313002822026,
        "Satellite Name": "Starlink Shell 3 1661",
        "Satellite Number": 1661,
        "Semi-Major Axis(m)": 6938478.169268562,
        "Time(s)": 30
    },
    {
        "Altitude(m)": 573397.0950585174,
        "Argument of Periapsis(deg)": -0.0015861867216120985,
        "Eccentricity": 0.0,
        "Inclination(deg)": 97.0,
        "Latitude(deg)": 58.94967779263778,
        "Longitude(deg)": 121.56642949586706,
        "Mean Anomaly(deg)": 120.43290479082019,
        "RAAN(deg)": 30.000417337096035,
        "Satellite Name": "Starlink Shell 3 1661",
        "Satellite Number": 1661,
        "Semi-Major Axis(m)": 6938478.169268562,
        "Time(s)": 40
    },
    {
        "Altitude(m)": 573266.6190335671,
        "Argument of Periapsis(deg)": -0.0019827334020151234,
        "Eccentricity": 0.0,
        "Inclination(deg)": 97.0,
        "Latitude(deg)": 58.34251193544969,
        "Longitude(deg)": 121.24519503860252,
        "Mean Anomaly(deg)": 121.05838098852524,
        "RAAN(deg)": 30.00052167137004,
        "Satellite Name": "Starlink Shell 3 1661",
        "Satellite Number": 1661,
        "Semi-Major Axis(m)": 6938478.169268562,
        "Time(s)": 50
    },
    {
        "Altitude(m)": 573134.8926524081,
        "Argument of Periapsis(deg)": -0.002379280082418148,
        "Eccentricity": 0.0,
        "Inclination(deg)": 97.0,
        "Latitude(deg)": 57.7346908969528,
        "Longitude(deg)": 120.9333831681032,
        "Mean Anomaly(deg)": 121.68385718623024,
        "RAAN(deg)": 30.00062600564405,
        "Satellite Name": "Starlink Shell 3 1661",
        "Satellite Number": 1661,
        "Semi-Major Axis(m)": 6938478.169268562,
        "Time(s)": 60
    },
    {
        "Altitude(m)": 573001.9934692666,
        "Argument of Periapsis(deg)": -0.002775826762821173,
        "Eccentricity": 0.0,
        "Inclination(deg)": 97.0,
        "Latitude(deg)": 57.12624675446016,
        "Longitude(deg)": 120.63047582141651,
        "Mean Anomaly(deg)": 122.3093333839353,
        "RAAN(deg)": 30.00073033991806,
        "Satellite Name": "Starlink Shell 3 1661",
        "Satellite Number": 1661,
        "Semi-Major Axis(m)": 6938478.169268562,
        "Time(s)": 70
    },
    {
        "Altitude(m)": 572867.9998855552,
        "Argument of Periapsis(deg)": -0.003172373443224197,
        "Eccentricity": 0.0,
        "Inclination(deg)": 97.0,
        "Latitude(deg)": 56.51720927698085,
        "Longitude(deg)": 120.33599068627574,
        "Mean Anomaly(deg)": 122.93480958164034,
        "RAAN(deg)": 30.000834674192067,
        "Satellite Name": "Starlink Shell 3 1661",
        "Satellite Number": 1661,
        "Semi-Major Axis(m)": 6938478.169268562,
        "Time(s)": 80
    },
    {
        "Altitude(m)": 572732.9911115124,
        "Argument of Periapsis(deg)": -0.0035689201236272223,
        "Eccentricity": 0.0,
        "Inclination(deg)": 97.0,
        "Latitude(deg)": 55.907606129590306,
        "Longitude(deg)": 120.049478629189,
        "Mean Anomaly(deg)": 123.56028577934538,
        "RAAN(deg)": 30.000939008466077,
        "Satellite Name": "Starlink Shell 3 1661",
        "Satellite Number": 1661,
        "Semi-Major Axis(m)": 6938478.169268562,
        "Time(s)": 90
    },
    {
        "Altitude(m)": 572597.0471274165,
        "Argument of Periapsis(deg)": -0.003965466804030247,
        "Eccentricity": 0.0,
        "Inclination(deg)": 97.0,
        "Latitude(deg)": 55.29746305710305,
        "Longitude(deg)": 119.7705214258916,
        "Mean Anomaly(deg)": 124.18576197705043,
        "RAAN(deg)": 30.001043342740093,
        "Satellite Name": "Starlink Shell 3 1661",
        "Satellite Number": 1661,
        "Semi-Major Axis(m)": 6938478.169268562,
        "Time(s)": 100
    },
    {
        "Altitude(m)": 572460.2486443372,
        "Argument of Periapsis(deg)": -0.004362013484433271,
        "Eccentricity": 0.0,
        "Inclination(deg)": 97.0,
        "Latitude(deg)": 54.68680404942683,
        "Longitude(deg)": 119.49872824780755,
        "Mean Anomaly(deg)": 124.81123817475547,
        "RAAN(deg)": 30.001147677014096,
        "Satellite Name": "Starlink Shell 3 1661",
        "Satellite Number": 1661,
        "Semi-Major Axis(m)": 6938478.169268562,
        "Time(s)": 110
    },
    {
        "Altitude(m)": 572322.6770644654,
        "Argument of Periapsis(deg)": -0.004758560164836296,
        "Eccentricity": 0.0,
        "Inclination(deg)": 97.0,
        "Latitude(deg)": 54.07565149067053,
        "Longitude(deg)": 119.23373390088219,
        "Mean Anomaly(deg)": 125.43671437246051,
        "RAAN(deg)": 30.00125201128811,
        "Satellite Name": "Starlink Shell 3 1661",
        "Satellite Number": 1661,
        "Semi-Major Axis(m)": 6938478.169268562,
        "Time(s)": 120
    },
    {
        "Altitude(m)": 572184.414441045,
        "Argument of Periapsis(deg)": -0.005155106845239321,
        "Eccentricity": 0.0,
        "Inclination(deg)": 97.0,
        "Latitude(deg)": 53.46402629381876,
        "Longitude(deg)": 118.97519727805599,
        "Mean Anomaly(deg)": 126.06219057016557,
        "RAAN(deg)": 30.00135634556212,
        "Satellite Name": "Starlink Shell 3 1661",
        "Satellite Number": 1661,
        "Semi-Major Axis(m)": 6938478.169268562,
        "Time(s)": 130
    },
    {
        "Altitude(m)": 572045.5434379268,
        "Argument of Periapsis(deg)": -0.005551653525642346,
        "Eccentricity": 0.0,
        "Inclination(deg)": 97.0,
        "Latitude(deg)": 52.85194802256303,
        "Longitude(deg)": 118.72279848973488,
        "Mean Anomaly(deg)": 126.68766676787061,
        "RAAN(deg)": 30.001460679836125,
        "Satellite Name": "Starlink Shell 3 1661",
        "Satellite Number": 1661,
        "Semi-Major Axis(m)": 6938478.169268562,
        "Time(s)": 140
    },
    {
        "Altitude(m)": 571906.1472887298,
        "Argument of Periapsis(deg)": -0.005948200206045371,
        "Eccentricity": 0.0,
        "Inclination(deg)": 97.0,
        "Latitude(deg)": 52.239435001679176,
        "Longitude(deg)": 118.4762376779218,
        "Mean Anomaly(deg)": 127.31314296557566,
        "RAAN(deg)": 30.001565014110135,
        "Satellite Name": "Starlink Shell 3 1661",
        "Satellite Number": 1661,
        "Semi-Major Axis(m)": 6938478.169268562,
        "Time(s)": 150
    },
    {
        "Altitude(m)": 571766.3097556693,
        "Argument of Periapsis(deg)": -0.006344746886448394,
        "Eccentricity": 0.0,
        "Inclination(deg)": 97.0,
        "Latitude(deg)": 51.626504417177,
        "Longitude(deg)": 118.23523398338502,
        "Mean Anomaly(deg)": 127.9386191632807,
        "RAAN(deg)": 30.001669348384144,
        "Satellite Name": "Starlink Shell 3 1661",
        "Satellite Number": 1661,
        "Semi-Major Axis(m)": 6938478.169268562,
        "Time(s)": 160
    },
    {
        "Altitude(m)": 571626.1150880395,
        "Argument of Periapsis(deg)": -0.00674129356685142,
        "Eccentricity": 0.0,
        "Inclination(deg)": 97.0,
        "Latitude(deg)": 51.01317240730207,
        "Longitude(deg)": 117.99952313728163,
        "Mean Anomaly(deg)": 128.56409536098576,
        "RAAN(deg)": 30.00177368265815,
        "Satellite Name": "Starlink Shell 3 1661",
        "Satellite Number": 1661,
        "Semi-Major Axis(m)": 6938478.169268562,
        "Time(s)": 170
    },
    {
        "Altitude(m)": 571485.6479804042,
        "Argument of Periapsis(deg)": -0.007137840247254445,
        "Eccentricity": 0.0,
        "Inclination(deg)": 97.0,
        "Latitude(deg)": 50.39945414533794,
        "Longitude(deg)": 117.76885668907072,
        "Mean Anomaly(deg)": 129.18957155869077,
        "RAAN(deg)": 30.00187801693216,
        "Satellite Name": "Starlink Shell 3 1661",
        "Satellite Number": 1661,
        "Semi-Major Axis(m)": 6938478.169268562,
        "Time(s)": 180
    }
]